PROBA-1                 
1 26958U 01049B   24013.08016068  .00004234  00000+0  33338-3 0  9998
2 26958  97.9083 346.9170 0062623 223.8697 135.7544 14.99834888210480
CUTE-1 (CO-55)          
1 27844U 03031E   24012.93987502  .00000623  00000+0  29583-3 0  9994
2 27844  98.6787  22.1626 0008888 234.3553 125.6798 14.23032607 65566
CUBESAT XI-IV (CO-57)   
1 27848U 03031J   24012.95519330  .00000532  00000+0  25784-3 0  9998
2 27848  98.6820  22.5040 0008648 251.7543 108.2694 14.22507699 65321
GENESIS 1               
1 29252U 06029A   24012.84968323  .00018718  00000+0  60164-3 0  9993
2 29252  64.5196 331.1983 0005014 319.3731  40.7024 15.32345135966581
GENESIS 2               
1 31789U 07028A   24013.19323472  .00016613  00000+0  54492-3 0  9999
2 31789  64.4929  14.9884 0040183 234.2533 125.4857 15.30983711913559
APRIZESAT 4             
1 35684U 09041D   24013.10303749  .00001395  00000+0  18505-3 0  9996
2 35684  98.2604  55.4461 0044662 306.8890  52.8231 14.80902339780126
APRIZESAT 3             
1 35686U 09041F   24012.83483802  .00003148  00000+0  31585-3 0  9997
2 35686  98.1059 122.7441 0070219 106.0028 254.8938 14.90254693784077
PROBA-2                 
1 36037U 09059B   24012.49928994  .00000648  00000+0  16507-3 0  9994
2 36037  98.2248 198.6171 0014156 134.9394 225.2953 14.53749854752649
APRIZESAT 5             
1 37792U 11044E   24013.16600135  .00002090  00000+0  29575-3 0  9991
2 37792  98.2572 273.4265 0055603 330.4486  29.3584 14.77210909667931
APRIZESAT 6             
1 37793U 11044F   24012.60800271  .00001409  00000+0  21942-3 0  9996
2 37793  98.3244 252.0105 0046470  35.8818 346.7497 14.73947042666403
PROBA-V                 
1 39159U 13021A   24013.00268352  .00000150  00000+0  84173-4 0  9992
2 39159  98.3109  28.2045 0003722 193.8790 166.2288 14.23197684555048
APRIZESAT 7             
1 39416U 13066A   24012.85700330  .00002784  00000+0  31663-3 0  9996
2 39416  97.6502 337.5893 0037620 264.4652  95.2272 14.86522508549308
APRIZESAT 8             
1 39425U 13066K   24012.88534647  .00002692  00000+0  32778-3 0  9991
2 39425  97.7094 330.5073 0048801 319.9277  39.8340 14.83403612548333
BUGSAT-1 (TITA)         
1 40014U 14033E   24012.87182342  .00006078  00000+0  46539-3 0  9994
2 40014  98.1480  46.6799 0034166 298.2363  61.5413 15.01815118522162
SAUDISAT 4              
1 40016U 14033G   24012.89566778  .00001261  00000+0  18380-3 0  9999
2 40016  97.6486 186.6261 0048564  76.9629 283.6997 14.76680853515136
APRIZESAT 9             
1 40018U 14033J   24012.94595005  .00001672  00000+0  26750-3 0  9998
2 40018  97.7772 165.2086 0069817 167.7898 192.5022 14.71437762513225
APRIZESAT 10            
1 40019U 14033K   24012.97991766  .00001572  00000+0  26696-3 0  9994
2 40019  97.8421 156.5079 0081371 222.5543 136.9338 14.68385558512254
TDS 1                   
1 40076U 14037H   24012.75052544  .00008925  00000+0  90004-3 0  9992
2 40076  98.3330 286.1374 0006557  20.1174 340.0300 14.91349649515106
TIANTUO 2               
1 40144U 14053B   24013.19011735  .00023681  00000+0  38999-3 0  9993
2 40144  97.1400  94.4942 0006327 260.8937  99.1601 15.52309173523744
TECHNOSAT               
1 42829U 17042E   24013.11815372  .00004569  00000+0  42126-3 0  9998
2 42829  97.3777 203.1221 0011836 237.1156 122.8927 14.95085228353840
FLYING LAPTOP           
1 42831U 17042G   24012.92455910  .00003617  00000+0  34299-3 0  9992
2 42831  97.3795 203.0597 0011923 239.2618 120.7429 14.94094118353796
HAWK-A                  
1 43765U 18099H   24013.15289349  .00005067  00000+0  39877-3 0  9997
2 43765  97.5310  75.4271 0009911 109.6076 250.6219 15.01216839279220
HAWK-B                  
1 43794U 18099AN  24012.75333253  .00005160  00000+0  40603-3 0  9991
2 43794  97.5314  75.0380 0009687 111.5340 248.6918 15.01214064279152
HAWK-C                  
1 43799U 18099AT  24012.68649179  .00005093  00000+0  40088-3 0  9997
2 43799  97.5313  74.8677 0009666 112.5409 247.6840 15.01209674279891
SALSAT                  
1 46495U 20068K   24012.86600683  .00007581  00000+0  46394-3 0  9999
2 46495  97.7983 328.7746 0016251 122.7429 237.5369 15.10405246180699
HAWK-2C                 
1 47502U 21006CT  24012.83983375  .00008445  00000+0  37603-3 0  9994
2 47502  97.3571  66.9787 0010071  90.1138 270.1252 15.21653579164279
HAWK-2A                 
1 47505U 21006CW  24012.84000430  .00008622  00000+0  38389-3 0  9999
2 47505  97.3574  67.0910 0009991  88.9208 271.3173 15.21653342164270
HAWK-2B                 
1 47508U 21006CZ  24013.10318408  .00008759  00000+0  38987-3 0  9994
2 47508  97.3570  67.2344 0010171  89.2873 270.9529 15.21656159164310
HAWK-3B                 
1 48931U 21059BE  24012.97312665  .00011594  00000+0  47235-3 0  9993
2 48931  97.6076 154.1661 0011715 269.6055  90.3840 15.24578405141207
HAWK-3C                 
1 48948U 21059BX  24012.97283451  .00011583  00000+0  47190-3 0  9999
2 48948  97.6340 157.1928 0012608 273.9330  86.0466 15.24570100141204
HAWK-3A                 
1 48957U 21059CG  24012.97272521  .00011505  00000+0  46867-3 0  9999
2 48957  97.6208 155.6859 0012638 267.3477  92.6313 15.24575420141209
HAWK-4B                 
1 52165U 22033J   24012.80528706  .00016069  00000+0  49973-3 0  9990
2 52165  97.3407  96.2181 0009239 140.4543 219.7376 15.33360328 99302
HAWK-4A                 
1 52167U 22033L   24013.19654959  .00016379  00000+0  50919-3 0  9991
2 52167  97.3354  96.2101 0008615 138.3478 221.8422 15.33373477 99368
HAWK-4C                 
1 52170U 22033P   24012.73962748  .00015357  00000+0  47763-3 0  9990
2 52170  97.3403  96.1347 0010530 129.8434 230.3737 15.33355167 99296
HAWK-5C                 
1 52754U 22057Y   24012.89216129  .00009718  00000+0  45267-3 0  9997
2 52754  97.5711 134.0681 0008085 343.5626  16.5346 15.20091163 90448
HAWK-5B                 
1 52756U 22057AA  24012.89202776  .00009421  00000+0  43886-3 0  9998
2 52756  97.5550 132.8052 0008630 338.0130  22.0733 15.20091657 90444
HAWK-5A                 
1 52757U 22057AB  24013.22092757  .00010013  00000+0  46606-3 0  9995
2 52757  97.5629 133.7620 0009007 339.9641  20.1239 15.20098787 90495
HAWK-6B                 
1 55324U 23011A   24012.55896583  .00005929  00000+0  37469-3 0  9990
2 55324  40.5186  71.2681 0004805 161.3423 198.7558 15.09366472 53214
HAWK-6C                 
1 55326U 23011C   24012.55863327  .00006031  00000+0  38091-3 0  9999
2 55326  40.4872  70.2569 0004868 153.9184 206.1866 15.09363363 53224
HAWK-6A                 
1 55327U 23011D   24012.62467124  .00006297  00000+0  39717-3 0  9993
2 55327  40.5031  70.4082 0004851 148.7944 211.3149 15.09370141 53238
HAWK-7A                 
1 56191U 23054P   24013.19250854  .00008087  00000+0  41971-3 0  9997
2 56191  97.3897 268.8875 0008160 333.1906  26.8904 15.16359020 42064
HAWK-7B                 
1 56193U 23054R   24013.19232309  .00006215  00000+0  32336-3 0  9990
2 56193  97.3642 268.1638 0009483 348.5170  11.5845 15.16349579 42069
HAWK-7C                 
1 56200U 23054Y   24012.66422899  .00007759  00000+0  40293-3 0  9990
2 56200  97.3809 268.0703 0008454 346.9810  13.1203 15.16348190 41989
